IRIDIUM 119             
1 42959U 17061E   25027.51424281 -.00000246  00000+0 -95081-4 0  9997
2 42959  86.3948 236.5152 0001786  97.1085 263.0314 14.34215887382336
IRIDIUM 107             
1 42960U 17061F   25026.62630084  .00000785  00000+0  27322-3 0  9998
2 42960  86.3943 236.9044 0002097 101.6629 258.4802 14.34216598382215
IRIDIUM 132             
1 42961U 17061G   25026.63262368  .00000386  00000+0  13062-3 0  9999
2 42961  86.3934 236.8840 0002270  84.6554 275.4901 14.34218150382214
IRIDIUM 136             
1 42962U 17061H   25027.50156974  .00000196  00000+0  62890-4 0  9995
2 42962  86.3946 236.5262 0001989 102.0451 258.0968 14.34217686382358
IRIDIUM 139             
1 42963U 17061J   25026.94975109  .00000265  00000+0  87424-4 0  9999
2 42963  86.3947 236.8104 0002183  97.6164 262.5279 14.34216449382288
IRIDIUM 125             
1 42964U 17061K   25027.07662346  .00000607  00000+0  20954-3 0  9995
2 42964  86.3948 236.8094 0001656 105.6763 254.4616 14.34218411382317
IRIDIUM 135             
1 43070U 17083A   25026.84142486  .00000134  00000+0  40947-4 0  9990
2 43070  86.4016 173.6463 0002055  89.0427 271.1004 14.34218454371577
IRIDIUM 138             
1 43071U 17083B   25026.93656417  .00000017  00000+0 -81703-6 0  9993
2 43071  86.4005 173.2961 0001427 100.8114 259.3243 14.34214099371576
